{"fetched_at":"2026-07-06T18:35:43.046Z","source":"https://celestrak.org/NORAD/elements/gp.php?NAME=LEGION&FORMAT=JSON","constellation":"maxar-legion","records":[{"OBJECT_NAME":"LEGION 1","OBJECT_ID":"2024-081A","EPOCH":"2026-07-06T03:52:18.053184","CLASSIFICATION_TYPE":"U","MEAN_MOTION":15.1680345,"ECCENTRICITY":0.00078989,"INCLINATION":97.5008,"RA_OF_ASC_NODE":264.8169,"ARG_OF_PERICENTER":307.1062,"MEAN_ANOMALY":52.9448,"EPHEMERIS_TYPE":0,"NORAD_CAT_ID":59625,"ELEMENT_SET_NO":999,"REV_AT_EPOCH":12041,"BSTAR":0.00022995395,"MEAN_MOTION_DOT":0.00004454,"MEAN_MOTION_DDOT":0},{"OBJECT_NAME":"LEGION 2","OBJECT_ID":"2024-081B","EPOCH":"2026-07-06T04:35:51.862272","CLASSIFICATION_TYPE":"U","MEAN_MOTION":15.16781695,"ECCENTRICITY":0.00098655,"INCLINATION":97.5008,"RA_OF_ASC_NODE":264.9439,"ARG_OF_PERICENTER":269.2409,"MEAN_ANOMALY":90.7694,"EPHEMERIS_TYPE":0,"NORAD_CAT_ID":59626,"ELEMENT_SET_NO":999,"REV_AT_EPOCH":12042,"BSTAR":0.00019240741,"MEAN_MOTION_DOT":0.00003714,"MEAN_MOTION_DDOT":0},{"OBJECT_NAME":"LEGION 3","OBJECT_ID":"2024-146A","EPOCH":"2026-07-06T02:37:06.652992","CLASSIFICATION_TYPE":"U","MEAN_MOTION":15.15617435,"ECCENTRICITY":0.00088842,"INCLINATION":45.0021,"RA_OF_ASC_NODE":289.089,"ARG_OF_PERICENTER":286.7069,"MEAN_ANOMALY":73.2834,"EPHEMERIS_TYPE":0,"NORAD_CAT_ID":60452,"ELEMENT_SET_NO":999,"REV_AT_EPOCH":10489,"BSTAR":0.00020743594,"MEAN_MOTION_DOT":0.00003749,"MEAN_MOTION_DDOT":0},{"OBJECT_NAME":"LEGION 4","OBJECT_ID":"2024-146B","EPOCH":"2026-07-06T01:04:03.378720","CLASSIFICATION_TYPE":"U","MEAN_MOTION":15.16192152,"ECCENTRICITY":0.0011588,"INCLINATION":45.0022,"RA_OF_ASC_NODE":21.3212,"ARG_OF_PERICENTER":54.7631,"MEAN_ANOMALY":305.4331,"EPHEMERIS_TYPE":0,"NORAD_CAT_ID":60453,"ELEMENT_SET_NO":999,"REV_AT_EPOCH":10373,"BSTAR":0.00024876858,"MEAN_MOTION_DOT":0.00004629,"MEAN_MOTION_DDOT":0}]}
